STARLINK-32255          
1 60417U 24141V   26068.70961049 -.00000487  00000+0 -43056-5 0  9991
2 60417  53.1587 242.4940 0001107  91.0152 269.0975 15.30197584 89582
TEVEL2-1                
1 63217U 25052H   26068.64782323  .00020683  00000+0  70600-3 0  9994
2 63217  97.3991 324.7682 0004767 104.8919 255.2849 15.30341923 54855
